FLOCK 4G-17             
1 62681U 25009CA  26188.67256294  .00007177  00000+0  24990-3 0  9993
2 62681  97.3916 269.9368 0003450 246.8664 113.2213 15.29977580139684
FLOCK 4G-33             
1 62685U 25009CE  26188.77807279  .00004233  00000+0  16875-3 0  9996
2 62685  97.3939 268.4151 0004072 247.2129 112.8679 15.25742220 81942
FLOCK 4H-1              
1 66704U 25276AQ  26188.71102253  .00004184  00000+0  19297-3 0  9998
2 66704  97.4166 262.0743 0001243 196.0807 164.0389 15.20790733 33557
FLOCK 4H-2              
1 66705U 25276AR  26188.75183510  .00004856  00000+0  22169-3 0  9996
2 66705  97.4163 262.1603 0000860 160.8139 199.3129 15.21061017 33563
FLOCK 4H-3              
1 66706U 25276AS  26188.73756744  .00004295  00000+0  20149-3 0  9993
2 66706  97.4234 262.0742 0002348 293.3327  66.7661 15.20183308 33543
FLOCK 4H-4              
1 66707U 25276AT  26188.77261236  .00004789  00000+0  22568-3 0  9990
2 66707  97.4211 261.9795 0003121 293.8015  66.2893 15.19973136 33540
FLOCK 4H-5              
1 66708U 25276AU  26188.76933910  .00004343  00000+0  19986-3 0  9991
2 66708  97.4165 262.1522 0000916 130.7089 229.4226 15.20846166 33568
FLOCK 4H-6              
1 66709U 25276AV  26188.74804074  .00004621  00000+0  21430-3 0  9994
2 66709  97.4218 262.1732 0001864 241.6684 118.4363 15.20544483 33552
FLOCK 4H-7              
1 66710U 25276AW  26188.79453856  .00004388  00000+0  20501-3 0  9997
2 66710  97.4176 261.9831 0001251 358.6774   1.4458 15.20316008 33559
FLOCK 4H-8              
1 66711U 25276AX  26188.72014330  .00004126  00000+0  19237-3 0  9995
2 66711  97.4215 262.0543 0002053 318.5140  41.5939 15.20423324 33547
FLOCK 4H-9              
1 66712U 25276AY  26188.73541708  .00004651  00000+0  21457-3 0  9991
2 66712  97.4207 262.1616 0001905 252.8783 107.2244 15.20722257 33556
FLOCK 4H-10             
1 66713U 25276AZ  26188.75730771  .00005149  00000+0  24151-3 0  9991
2 66713  97.4180 261.9018 0002952 294.5351  65.5576 15.20098913 33545
FLOCK 4H-11             
1 66714U 25276BA  26188.73198043  .00009178  00000+0  39086-3 0  9999
2 66714  97.4187 262.4340 0001180 302.8407  57.2716 15.23195256 33572
FLOCK 4H-12             
1 66715U 25276BB  26188.72260259  .00004383  00000+0  20224-3 0  9995
2 66715  97.4179 262.0870 0001057 207.4810 152.6370 15.20748833 33869
FLOCK 4H-13             
1 66716U 25276BC  26188.69370601  .00004566  00000+0  20995-3 0  9993
2 66716  97.4213 262.2277 0001359 151.2955 208.8355 15.20849810 33553
FLOCK 4H-14             
1 66717U 25276BD  26188.72214958  .00004167  00000+0  18938-3 0  9991
2 66717  97.4195 262.2991 0001340 145.9829 214.1493 15.21301716 32816
