{"fetched_at":"2026-07-08T07:03:36.533Z","source":"https://celestrak.org/NORAD/elements/gp.php?GROUP=planet&FORMAT=JSON","constellation":"superdove","records":[{"OBJECT_NAME":"FLOCK 4G-17","OBJECT_ID":"2025-009CA","EPOCH":"2026-07-07T16:08:29.438016","CLASSIFICATION_TYPE":"U","MEAN_MOTION":15.2997758,"ECCENTRICITY":0.000345,"INCLINATION":97.3916,"RA_OF_ASC_NODE":269.9368,"ARG_OF_PERICENTER":246.8664,"MEAN_ANOMALY":113.2213,"EPHEMERIS_TYPE":0,"NORAD_CAT_ID":62681,"ELEMENT_SET_NO":999,"REV_AT_EPOCH":13968,"BSTAR":0.0002499,"MEAN_MOTION_DOT":0.00007177,"MEAN_MOTION_DDOT":0},{"OBJECT_NAME":"FLOCK 4G-33","OBJECT_ID":"2025-009CE","EPOCH":"2026-07-07T18:40:25.489056","CLASSIFICATION_TYPE":"U","MEAN_MOTION":15.2574222,"ECCENTRICITY":0.0004072,"INCLINATION":97.3939,"RA_OF_ASC_NODE":268.4151,"ARG_OF_PERICENTER":247.2129,"MEAN_ANOMALY":112.8679,"EPHEMERIS_TYPE":0,"NORAD_CAT_ID":62685,"ELEMENT_SET_NO":999,"REV_AT_EPOCH":8194,"BSTAR":0.00016875,"MEAN_MOTION_DOT":0.00004233,"MEAN_MOTION_DDOT":0},{"OBJECT_NAME":"FLOCK 4H-1","OBJECT_ID":"2025-276AQ","EPOCH":"2026-07-07T17:03:52.346592","CLASSIFICATION_TYPE":"U","MEAN_MOTION":15.20790733,"ECCENTRICITY":0.0001243,"INCLINATION":97.4166,"RA_OF_ASC_NODE":262.0743,"ARG_OF_PERICENTER":196.0807,"MEAN_ANOMALY":164.0389,"EPHEMERIS_TYPE":0,"NORAD_CAT_ID":66704,"ELEMENT_SET_NO":999,"REV_AT_EPOCH":3355,"BSTAR":0.00019297,"MEAN_MOTION_DOT":0.00004184,"MEAN_MOTION_DDOT":0},{"OBJECT_NAME":"FLOCK 4H-2","OBJECT_ID":"2025-276AR","EPOCH":"2026-07-07T18:02:38.552640","CLASSIFICATION_TYPE":"U","MEAN_MOTION":15.21061017,"ECCENTRICITY":0.000086,"INCLINATION":97.4163,"RA_OF_ASC_NODE":262.1603,"ARG_OF_PERICENTER":160.8139,"MEAN_ANOMALY":199.3129,"EPHEMERIS_TYPE":0,"NORAD_CAT_ID":66705,"ELEMENT_SET_NO":999,"REV_AT_EPOCH":3356,"BSTAR":0.00022169,"MEAN_MOTION_DOT":0.00004856,"MEAN_MOTION_DDOT":0},{"OBJECT_NAME":"FLOCK 4H-3","OBJECT_ID":"2025-276AS","EPOCH":"2026-07-07T17:42:05.826816","CLASSIFICATION_TYPE":"U","MEAN_MOTION":15.20183308,"ECCENTRICITY":0.0002348,"INCLINATION":97.4234,"RA_OF_ASC_NODE":262.0742,"ARG_OF_PERICENTER":293.3327,"MEAN_ANOMALY":66.7661,"EPHEMERIS_TYPE":0,"NORAD_CAT_ID":66706,"ELEMENT_SET_NO":999,"REV_AT_EPOCH":3354,"BSTAR":0.00020149,"MEAN_MOTION_DOT":0.00004295,"MEAN_MOTION_DDOT":0},{"OBJECT_NAME":"FLOCK 4H-4","OBJECT_ID":"2025-276AT","EPOCH":"2026-07-07T18:32:33.707904","CLASSIFICATION_TYPE":"U","MEAN_MOTION":15.19973136,"ECCENTRICITY":0.0003121,"INCLINATION":97.4211,"RA_OF_ASC_NODE":261.9795,"ARG_OF_PERICENTER":293.8015,"MEAN_ANOMALY":66.2893,"EPHEMERIS_TYPE":0,"NORAD_CAT_ID":66707,"ELEMENT_SET_NO":999,"REV_AT_EPOCH":3354,"BSTAR":0.00022568,"MEAN_MOTION_DOT":0.00004789,"MEAN_MOTION_DDOT":0},{"OBJECT_NAME":"FLOCK 4H-5","OBJECT_ID":"2025-276AU","EPOCH":"2026-07-07T18:27:50.898240","CLASSIFICATION_TYPE":"U","MEAN_MOTION":15.20846166,"ECCENTRICITY":0.0000916,"INCLINATION":97.4165,"RA_OF_ASC_NODE":262.1522,"ARG_OF_PERICENTER":130.7089,"MEAN_ANOMALY":229.4226,"EPHEMERIS_TYPE":0,"NORAD_CAT_ID":66708,"ELEMENT_SET_NO":999,"REV_AT_EPOCH":3356,"BSTAR":0.00019986,"MEAN_MOTION_DOT":0.00004343,"MEAN_MOTION_DDOT":0},{"OBJECT_NAME":"FLOCK 4H-6","OBJECT_ID":"2025-276AV","EPOCH":"2026-07-07T17:57:10.719936","CLASSIFICATION_TYPE":"U","MEAN_MOTION":15.20544483,"ECCENTRICITY":0.0001864,"INCLINATION":97.4218,"RA_OF_ASC_NODE":262.1732,"ARG_OF_PERICENTER":241.6684,"MEAN_ANOMALY":118.4363,"EPHEMERIS_TYPE":0,"NORAD_CAT_ID":66709,"ELEMENT_SET_NO":999,"REV_AT_EPOCH":3355,"BSTAR":0.0002143,"MEAN_MOTION_DOT":0.00004621,"MEAN_MOTION_DDOT":0},{"OBJECT_NAME":"FLOCK 4H-7","OBJECT_ID":"2025-276AW","EPOCH":"2026-07-07T19:04:08.131584","CLASSIFICATION_TYPE":"U","MEAN_MOTION":15.20316008,"ECCENTRICITY":0.0001251,"INCLINATION":97.4176,"RA_OF_ASC_NODE":261.9831,"ARG_OF_PERICENTER":358.6774,"MEAN_ANOMALY":1.4458,"EPHEMERIS_TYPE":0,"NORAD_CAT_ID":66710,"ELEMENT_SET_NO":999,"REV_AT_EPOCH":3355,"BSTAR":0.00020501,"MEAN_MOTION_DOT":0.00004388,"MEAN_MOTION_DDOT":0},{"OBJECT_NAME":"FLOCK 4H-8","OBJECT_ID":"2025-276AX","EPOCH":"2026-07-07T17:17:00.381120","CLASSIFICATION_TYPE":"U","MEAN_MOTION":15.20423324,"ECCENTRICITY":0.0002053,"INCLINATION":97.4215,"RA_OF_ASC_NODE":262.0543,"ARG_OF_PERICENTER":318.514,"MEAN_ANOMALY":41.5939,"EPHEMERIS_TYPE":0,"NORAD_CAT_ID":66711,"ELEMENT_SET_NO":999,"REV_AT_EPOCH":3354,"BSTAR":0.00019237,"MEAN_MOTION_DOT":0.00004126,"MEAN_MOTION_DDOT":0},{"OBJECT_NAME":"FLOCK 4H-9","OBJECT_ID":"2025-276AY","EPOCH":"2026-07-07T17:39:00.035712","CLASSIFICATION_TYPE":"U","MEAN_MOTION":15.20722257,"ECCENTRICITY":0.0001905,"INCLINATION":97.4207,"RA_OF_ASC_NODE":262.1616,"ARG_OF_PERICENTER":252.8783,"MEAN_ANOMALY":107.2244,"EPHEMERIS_TYPE":0,"NORAD_CAT_ID":66712,"ELEMENT_SET_NO":999,"REV_AT_EPOCH":3355,"BSTAR":0.00021457,"MEAN_MOTION_DOT":0.00004651,"MEAN_MOTION_DDOT":0},{"OBJECT_NAME":"FLOCK 4H-10","OBJECT_ID":"2025-276AZ","EPOCH":"2026-07-07T18:10:31.386144","CLASSIFICATION_TYPE":"U","MEAN_MOTION":15.20098913,"ECCENTRICITY":0.0002952,"INCLINATION":97.418,"RA_OF_ASC_NODE":261.9018,"ARG_OF_PERICENTER":294.5351,"MEAN_ANOMALY":65.5576,"EPHEMERIS_TYPE":0,"NORAD_CAT_ID":66713,"ELEMENT_SET_NO":999,"REV_AT_EPOCH":3354,"BSTAR":0.00024151,"MEAN_MOTION_DOT":0.00005149,"MEAN_MOTION_DDOT":0},{"OBJECT_NAME":"FLOCK 4H-11","OBJECT_ID":"2025-276BA","EPOCH":"2026-07-07T17:34:03.109152","CLASSIFICATION_TYPE":"U","MEAN_MOTION":15.23195256,"ECCENTRICITY":0.000118,"INCLINATION":97.4187,"RA_OF_ASC_NODE":262.434,"ARG_OF_PERICENTER":302.8407,"MEAN_ANOMALY":57.2716,"EPHEMERIS_TYPE":0,"NORAD_CAT_ID":66714,"ELEMENT_SET_NO":999,"REV_AT_EPOCH":3357,"BSTAR":0.00039086,"MEAN_MOTION_DOT":0.00009178,"MEAN_MOTION_DDOT":0},{"OBJECT_NAME":"FLOCK 4H-12","OBJECT_ID":"2025-276BB","EPOCH":"2026-07-07T17:20:32.863776","CLASSIFICATION_TYPE":"U","MEAN_MOTION":15.20748833,"ECCENTRICITY":0.0001057,"INCLINATION":97.4179,"RA_OF_ASC_NODE":262.087,"ARG_OF_PERICENTER":207.481,"MEAN_ANOMALY":152.637,"EPHEMERIS_TYPE":0,"NORAD_CAT_ID":66715,"ELEMENT_SET_NO":999,"REV_AT_EPOCH":3386,"BSTAR":0.00020224,"MEAN_MOTION_DOT":0.00004383,"MEAN_MOTION_DDOT":0},{"OBJECT_NAME":"FLOCK 4H-13","OBJECT_ID":"2025-276BC","EPOCH":"2026-07-07T16:38:56.199264","CLASSIFICATION_TYPE":"U","MEAN_MOTION":15.2084981,"ECCENTRICITY":0.0001359,"INCLINATION":97.4213,"RA_OF_ASC_NODE":262.2277,"ARG_OF_PERICENTER":151.2955,"MEAN_ANOMALY":208.8355,"EPHEMERIS_TYPE":0,"NORAD_CAT_ID":66716,"ELEMENT_SET_NO":999,"REV_AT_EPOCH":3355,"BSTAR":0.00020995,"MEAN_MOTION_DOT":0.00004566,"MEAN_MOTION_DDOT":0},{"OBJECT_NAME":"FLOCK 4H-14","OBJECT_ID":"2025-276BD","EPOCH":"2026-07-07T17:19:53.723712","CLASSIFICATION_TYPE":"U","MEAN_MOTION":15.21301716,"ECCENTRICITY":0.000134,"INCLINATION":97.4195,"RA_OF_ASC_NODE":262.2991,"ARG_OF_PERICENTER":145.9829,"MEAN_ANOMALY":214.1493,"EPHEMERIS_TYPE":0,"NORAD_CAT_ID":66717,"ELEMENT_SET_NO":999,"REV_AT_EPOCH":3281,"BSTAR":0.00018938,"MEAN_MOTION_DOT":0.00004167,"MEAN_MOTION_DDOT":0}]}
